STARLINK-5342           
1 56516U 23065P   26156.05729698  .00000653  00000+0  33284-4 0  9992
2 56516  43.0062  78.8926 0002185 282.3501  77.7106 15.27578552169963
STARLINK-5346           
1 56518U 23065R   26156.46375389  .00000010  00000+0  98964-5 0  9997
2 56518  43.0022  76.7780 0000930 264.4192  95.6554 15.27575790170025
STARLINK-6313           
1 56519U 23065S   26156.47788650  .00000182  00000+0  16137-4 0  9999
2 56519  43.0040  76.8724 0000759 231.1076 128.9708 15.27576552170024
STARLINK-6344           
1 56520U 23065T   26156.07528859  .00000048  00000+0  11283-4 0  9998
2 56520  43.0061  79.0183 0001081 258.2136 101.8594 15.27577542169963
STARLINK-6333           
1 56521U 23065U   26156.47996559  .00000887  00000+0  41750-4 0  9992
2 56521  43.0056  80.2915 0001188 266.6847  93.3869 15.27580924169985
STARLINK-6327           
1 56522U 23065V   26156.47402830  .00000323  00000+0  21250-4 0  9995
2 56522  43.0008  76.8456 0001129 267.1597  92.9125 15.27577656170022
STARLINK-6328           
1 56523U 23065W   26156.49587142  .00000140  00000+0  14628-4 0  9996
2 56523  43.0051  77.0088 0001193 270.4879  89.5836 15.27577589170022
STARLINK-6323           
1 56524U 23065X   26156.48944664  .00000178  00000+0  15994-4 0  9990
2 56524  43.0046  76.9646 0001217 265.9318  94.1394 15.27577336170020
STARLINK-6317           
1 56526U 23065Z   26156.49331913  .00000366  00000+0  22799-4 0  9990
2 56526  43.0064  76.9885 0000387 251.3651 108.7158 15.27574578170028
STARLINK-6335           
1 56527U 23065AA  26156.08894586 -.00000077  00000+0  67392-5 0  9995
2 56527  43.0026  82.5118 0000853 251.3341 108.7418 15.27570291169927
STARLINK-6337           
1 56528U 23065AB  26156.47353536  .00001628  00000+0  68690-4 0  9997
2 56528  43.0044  80.2403 0001453 273.0813  86.9872 15.27575889169987
STARLINK-6307           
1 56529U 23065AC  26152.16881603  .00000320  00000+0  21160-4 0  9990
2 56529  43.0042  89.9979 0001653 249.9358 110.1316 15.27580130169492
STARLINK-6318           
1 56530U 23065AD  26152.97451489 -.00000096  00000+0  60394-5 0  9990
2 56530  43.0060  70.9924 0001388 268.7214  91.3478 15.27574749169789
STARLINK-6280           
1 56531U 23065AE  26156.44255552  .00000442  00000+0  25581-4 0  9992
2 56531  43.0046  62.7533 0001031 261.9623  98.1111 15.27578365170186
STARLINK-6319           
1 56532U 23065AF  26156.43485659 -.00000354  00000+0 -33500-5 0  9990
2 56532  43.0020  62.7002 0000657 246.8388 113.2395 15.27569090170181
STARLINK-6310           
1 56533U 23065AG  26152.23598106 -.00000296  00000+0 -12454-5 0  9997
2 56533  43.0012  86.2242 0000878 253.5363 106.5392 15.27575004169545
STARLINK-6308           
1 56534U 23065AH  26156.43869832 -.00001632  00000+0 -49822-4 0  9994
2 56534  43.0003  62.7306 0001291 271.2477  88.8227 15.27566738170184
STARLINK-6309           
1 56535U 23065AJ  26152.36688609  .00000327  00000+0  21425-4 0  9991
2 56535  43.0045 114.0747 0001641 258.3550 101.7117 15.27574542169237
STARLINK-6312           
1 56536U 23065AK  26156.10804791  .00000990  00000+0  45497-4 0  9991
2 56536  43.0051  93.1330 0001609 267.5088  92.5579 15.27581944169808
STARLINK-6311           
1 56537U 23065AL  26156.09776862  .00000777  00000+0  37754-4 0  9997
2 56537  43.0051  93.0573 0001468 268.9762  91.0922 15.27580782169809
STARLINK-6314           
1 56538U 23065AM  26156.42456786  .00000354  00000+0  22376-4 0  9990
2 56538  43.0016  62.6173 0000799 262.2026  97.8735 15.27578032170189
STARLINK-6135           
1 56539U 23065AN  26156.11579375 -.00012577  00000+0 -44947-3 0  9996
2 56539  43.0030  93.1924 0000476 270.9107  89.1690 15.27495639169809
STARLINK-6136           
1 56540U 23065AP  26156.51193296  .00000256  00000+0  18831-4 0  9999
2 56540  43.0002  91.0059 0001001 260.6478  99.4261 15.27576546169869
STARLINK-6249           
1 56541U 23065AQ  26156.53298036  .00002603  00000+0  10408-3 0  9999
2 56541  43.0057  87.7492 0002806 262.0684  97.9849 15.27589658169900
STARLINK-6266           
1 56542U 23065AR  26156.50422171  .00000497  00000+0  27596-4 0  9992
2 56542  43.0020  90.9417 0001099 271.2756  88.7970 15.27578140169861
STARLINK-6226           
1 56544U 23065AT  26156.09312245  .00000602  00000+0  31407-4 0  9992
2 56544  43.0019  89.6183 0001283 259.0866 100.9842 15.27579620169844
STARLINK-6086           
1 56545U 23065AU  26156.52143676  .00000351  00000+0  22276-4 0  9996
2 56545  43.0050  87.6624 0001149 254.6697 105.4028 15.27572722169901
STARLINK-6187           
1 56546U 23065AV  26156.52911416  .00014062  00000+0  51893-3 0  9992
2 56546  43.0046  87.7214 0001522 264.9118  95.1560 15.27619187169903
