OBJECT_NAME,OBJECT_ID,EPOCH,MEAN_MOTION,ECCENTRICITY,INCLINATION,RA_OF_ASC_NODE,ARG_OF_PERICENTER,MEAN_ANOMALY,EPHEMERIS_TYPE,CLASSIFICATION_TYPE,NORAD_CAT_ID,ELEMENT_SET_NO,REV_AT_EPOCH,BSTAR,MEAN_MOTION_DOT,MEAN_MOTION_DDOT
STARLINK-5342,2023-065P,2026-06-05T01:22:30.459072,15.27578552,.00021852,43.0062,78.8926,282.3501,77.7106,0,U,56516,999,16996,.33283982E-4,.653E-5,0
STARLINK-5346,2023-065R,2026-06-05T11:07:48.336096,15.27575790,.000093,43.0022,76.7780,264.4192,95.6554,0,U,56518,999,17002,.98964E-5,.1E-6,0
STARLINK-6313,2023-065S,2026-06-05T11:28:09.393600,15.27576552,.0000759,43.0040,76.8724,231.1076,128.9708,0,U,56519,999,17002,.16137E-4,.182E-5,0
STARLINK-6344,2023-065T,2026-06-05T01:48:24.934176,15.27577542,.00010815,43.0061,79.0183,258.2136,101.8594,0,U,56520,999,16996,.11282683E-4,.48E-6,0
STARLINK-6333,2023-065U,2026-06-05T11:31:09.026976,15.27580924,.0001188,43.0056,80.2915,266.6847,93.3869,0,U,56521,999,16998,.4175E-4,.887E-5,0
STARLINK-6327,2023-065V,2026-06-05T11:22:36.045120,15.27577656,.0001129,43.0008,76.8456,267.1597,92.9125,0,U,56522,999,17002,.2125E-4,.323E-5,0
STARLINK-6328,2023-065W,2026-06-05T11:54:03.290688,15.27577589,.0001193,43.0051,77.0088,270.4879,89.5836,0,U,56523,999,17002,.14628E-4,.14E-5,0
STARLINK-6323,2023-065X,2026-06-05T11:44:48.189696,15.27577336,.0001217,43.0046,76.9646,265.9318,94.1394,0,U,56524,999,17002,.15994E-4,.178E-5,0
STARLINK-6317,2023-065Z,2026-06-05T11:50:22.772832,15.27574578,.0000387,43.0064,76.9885,251.3651,108.7158,0,U,56526,999,17002,.22799E-4,.366E-5,0
STARLINK-6335,2023-065AA,2026-06-05T02:08:04.922304,15.27570291,.00008531,43.0026,82.5118,251.3341,108.7418,0,U,56527,999,16992,.6739153E-5,-.77E-6,0
STARLINK-6337,2023-065AB,2026-06-05T11:21:53.455104,15.27575889,.0001453,43.0044,80.2403,273.0813,86.9872,0,U,56528,999,16998,.6869E-4,.1628E-4,0
STARLINK-6307,2023-065AC,2026-06-01T04:03:05.704992,15.27580130,.00016533,43.0042,89.9979,249.9358,110.1316,0,U,56529,999,16949,.21160012E-4,.32E-5,0
STARLINK-6318,2023-065AD,2026-06-01T23:23:18.086496,15.27574749,.00013889,43.0060,70.9924,268.7214,91.3478,0,U,56530,999,16978,.6039429E-5,-.96E-6,0
STARLINK-6280,2023-065AE,2026-06-05T10:37:16.796928,15.27578365,.0001031,43.0046,62.7533,261.9623,98.1111,0,U,56531,999,17018,.25581E-4,.442E-5,0
STARLINK-6319,2023-065AF,2026-06-05T10:26:11.609376,15.27569090,.0000657,43.0020,62.7002,246.8388,113.2395,0,U,56532,999,17018,-.335E-5,-.354E-5,0
STARLINK-6310,2023-065AG,2026-06-01T05:39:48.763584,15.27575004,.00008781,43.0012,86.2242,253.5363,106.5392,0,U,56533,999,16954,-.1245354E-5,-.296E-5,0
STARLINK-6308,2023-065AH,2026-06-05T10:31:43.534848,15.27566738,.0001291,43.0003,62.7306,271.2477,88.8227,0,U,56534,999,17018,-.49822E-4,-.1632E-4,0
STARLINK-6309,2023-065AJ,2026-06-01T08:48:18.958176,15.27574542,.00016417,43.0045,114.0747,258.3550,101.7117,0,U,56535,999,16923,.21424559E-4,.327E-5,0
STARLINK-6312,2023-065AK,2026-06-05T02:35:35.339424,15.27581944,.00016098,43.0051,93.1330,267.5088,92.5579,0,U,56536,999,16980,.45496513E-4,.99E-5,0
STARLINK-6311,2023-065AL,2026-06-05T02:20:47.208768,15.27580782,.00014682,43.0051,93.0573,268.9762,91.0922,0,U,56537,999,16980,.37754283E-4,.777E-5,0
STARLINK-6314,2023-065AM,2026-06-05T10:11:22.663104,15.27578032,.0000799,43.0016,62.6173,262.2026,97.8735,0,U,56538,999,17018,.22376E-4,.354E-5,0
STARLINK-6135,2023-065AN,2026-06-05T02:46:44.580000,15.27495639,.0000476,43.0030,93.1924,270.9107,89.1690,0,U,56539,999,16980,-.44946588E-3,-.12577E-3,0
STARLINK-6136,2023-065AP,2026-06-05T12:17:11.007744,15.27576546,.0001001,43.0002,91.0059,260.6478,99.4261,0,U,56540,999,16986,.18831E-4,.256E-5,0
STARLINK-6249,2023-065AQ,2026-06-05T12:47:29.503104,15.27589658,.0002806,43.0057,87.7492,262.0684,97.9849,0,U,56541,999,16990,.10408E-3,.2603E-4,0
STARLINK-6266,2023-065AR,2026-06-05T12:06:04.755744,15.27578140,.0001099,43.0020,90.9417,271.2756,88.7970,0,U,56542,999,16986,.27596E-4,.497E-5,0
STARLINK-6226,2023-065AT,2026-06-05T02:14:05.779680,15.27579620,.00012832,43.0019,89.6183,259.0866,100.9842,0,U,56544,999,16984,.31406643E-4,.602E-5,0
STARLINK-6086,2023-065AU,2026-06-05T12:30:52.136064,15.27572722,.0001149,43.0050,87.6624,254.6697,105.4028,0,U,56545,999,16990,.22276E-4,.351E-5,0
STARLINK-6187,2023-065AV,2026-06-05T12:41:55.463424,15.27619187,.0001522,43.0046,87.7214,264.9118,95.1560,0,U,56546,999,16990,.51893E-3,.14062E-3,0
